[{"OBJECT_NAME":"TANSTAAFL-2","OBJECT_ID":"2024-247B","EPOCH":"2026-03-08T04:58:51.015360","MEAN_MOTION":15.28016845,"ECCENTRICITY":0.00030723,"INCLINATION":44.988,"RA_OF_ASC_NODE":125.0934,"ARG_OF_PERICENTER":298.8909,"MEAN_ANOMALY":61.1666,"EPHEMERIS_TYPE":0,"CLASSIFICATION_TYPE":"U","NORAD_CAT_ID":62378,"ELEMENT_SET_NO":999,"REV_AT_EPOCH":6750,"BSTAR":0.00050871624,"MEAN_MOTION_DOT":0.00013897,"MEAN_MOTION_DDOT":0},{"OBJECT_NAME":"STARLINK-35647","OBJECT_ID":"2025-257J","EPOCH":"2026-03-09T17:32:02.587200","MEAN_MOTION":15.30203663,"ECCENTRICITY":9.304e-5,"INCLINATION":53.1609,"RA_OF_ASC_NODE":216.5566,"ARG_OF_PERICENTER":90.4044,"MEAN_ANOMALY":269.7064,"EPHEMERIS_TYPE":0,"CLASSIFICATION_TYPE":"U","NORAD_CAT_ID":66388,"ELEMENT_SET_NO":999,"REV_AT_EPOCH":1973,"BSTAR":0.00083883129,"MEAN_MOTION_DOT":0.0002457,"MEAN_MOTION_DDOT":0}]
