TANSTAAFL-2             
1 62378U 24247B   26067.20753490  .00013897  00000+0  50872-3 0  9998
2 62378  44.9880 125.0934 0003072 298.8909  61.1666 15.28016845 67506
STARLINK-35647          
1 66388U 25257J   26068.73058549  .00024570  00000+0  83883-3 0  9995
2 66388  53.1609 216.5566 0000930  90.4044 269.7064 15.30203663 19734
